{
  "type": "FeatureCollection",
  "features": [
    {
      "type": "Feature",
      "properties": {
        "norad_id": 34314,
        "name": "COSMOS 2251 DEB",
        "group": "cosmos-2251-debris",
        "lat": -33.49321383261772,
        "lon": -58.92763425599999,
        "alt_km": 843.1625966881338,
        "timestamp": "2025-12-10T16:57:12.032902+00:00",
        "meta_object_name": "COSMOS 2251 DEB",
        "meta_object_id": "1993-036NL",
        "meta_epoch": "2025-12-10T09:13:28.583040",
        "meta_mean_motion": 14.17415771,
        "meta_eccentricity": 0.0102726,
        "meta_inclination": 74.0069,
        "meta_ra_of_asc_node": 312.5866,
        "meta_arg_of_pericenter": 58.8305,
        "meta_mean_anomaly": 64.8312,
        "meta_ephemeris_type": 0,
        "meta_classification_type": "U",
        "meta_norad_cat_id": 34314,
        "meta_element_set_no": 999,
        "meta_rev_at_epoch": 86624,
        "meta_bstar": 0.00091039,
        "meta_mean_motion_dot": 1.918e-05,
        "meta_mean_motion_ddot": 0,
        "tle_line1": "1 34314U 93036NL  25344.38435860  .00001918  00000+0  91039-3 0  9994",
        "tle_line2": "2 34314  74.0069 312.5866 0102726  58.8305  64.8312 14.17415771866249"
      },
      "geometry": {
        "type": "Point",
        "coordinates": [
          -58.92763425599999,
          -33.49321383261772
        ]
      }
    },
    {
      "type": "Feature",
      "properties": {
        "norad_id": 34316,
        "name": "COSMOS 2251 DEB",
        "group": "cosmos-2251-debris",
        "lat": -25.227117105699847,
        "lon": -26.773638978879926,
        "alt_km": 597.9855695160777,
        "timestamp": "2025-12-10T16:57:12.032912+00:00",
        "meta_object_name": "COSMOS 2251 DEB",
        "meta_object_id": "1993-036NN",
        "meta_epoch": "2025-12-10T09:01:23.323296",
        "meta_mean_motion": 14.91709066,
        "meta_eccentricity": 0.0008237,
        "meta_inclination": 74.0658,
        "meta_ra_of_asc_node": 341.6235,
        "meta_arg_of_pericenter": 65.9173,
        "meta_mean_anomaly": 294.287,
        "meta_ephemeris_type": 0,
        "meta_classification_type": "U",
        "meta_norad_cat_id": 34316,
        "meta_element_set_no": 999,
        "meta_rev_at_epoch": 89174,
        "meta_bstar": 0.0023172,
        "meta_mean_motion_dot": 0.00023381,
        "meta_mean_motion_ddot": 0,
        "tle_line1": "1 34316U 93036NN  25344.37596439  .00023381  00000+0  23172-2 0  9995",
        "tle_line2": "2 34316  74.0658 341.6235 0008237  65.9173 294.2870 14.91709066891748"
      },
      "geometry": {
        "type": "Point",
        "coordinates": [
          -26.773638978879926,
          -25.227117105699847
        ]
      }
    },
    {
      "type": "Feature",
      "properties": {
        "norad_id": 34317,
        "name": "COSMOS 2251 DEB",
        "group": "cosmos-2251-debris",
        "lat": -69.91353992904746,
        "lon": -12.940386424673836,
        "alt_km": 1087.1630137730945,
        "timestamp": "2025-12-10T16:57:12.032923+00:00",
        "meta_object_name": "COSMOS 2251 DEB",
        "meta_object_id": "1993-036NP",
        "meta_epoch": "2025-12-10T05:16:31.176192",
        "meta_mean_motion": 13.65118417,
        "meta_eccentricity": 0.0336435,
        "meta_inclination": 73.9248,
        "meta_ra_of_asc_node": 39.9064,
        "meta_arg_of_pericenter": 29.6567,
        "meta_mean_anomaly": 25.8962,
        "meta_ephemeris_type": 0,
        "meta_classification_type": "U",
        "meta_norad_cat_id": 34317,
        "meta_element_set_no": 999,
        "meta_rev_at_epoch": 83585,
        "meta_bstar": 0.00053858,
        "meta_mean_motion_dot": 6.21e-06,
        "meta_mean_motion_ddot": 0,
        "tle_line1": "1 34317U 93036NP  25344.21980528  .00000621  00000+0  53858-3 0  9992",
        "tle_line2": "2 34317  73.9248  39.9064 0336435  29.6567  25.8962 13.65118417835851"
      },
      "geometry": {
        "type": "Point",
        "coordinates": [
          -12.940386424673836,
          -69.91353992904746
        ]
      }
    },
    {
      "type": "Feature",
      "properties": {
        "norad_id": 34321,
        "name": "COSMOS 2251 DEB",
        "group": "cosmos-2251-debris",
        "lat": 63.30820562884307,
        "lon": -165.09211915414502,
        "alt_km": 727.380420201197,
        "timestamp": "2025-12-10T16:57:12.032933+00:00",
        "meta_object_name": "COSMOS 2251 DEB",
        "meta_object_id": "1993-036NT",
        "meta_epoch": "2025-12-10T11:48:49.727808",
        "meta_mean_motion": 14.50039394,
        "meta_eccentricity": 0.0015767,
        "meta_inclination": 74.0281,
        "meta_ra_of_asc_node": 160.5842,
        "meta_arg_of_pericenter": 290.2555,
        "meta_mean_anomaly": 100.575,
        "meta_ephemeris_type": 0,
        "meta_classification_type": "U",
        "meta_norad_cat_id": 34321,
        "meta_element_set_no": 999,
        "meta_rev_at_epoch": 88454,
        "meta_bstar": 0.00084002,
        "meta_mean_motion_dot": 3.235e-05,
        "meta_mean_motion_ddot": 0,
        "tle_line1": "1 34321U 93036NT  25344.49224222  .00003235  00000+0  84002-3 0  9998",
        "tle_line2": "2 34321  74.0281 160.5842 0015767 290.2555 100.5750 14.50039394884542"
      },
      "geometry": {
        "type": "Point",
        "coordinates": [
          -165.09211915414502,
          63.30820562884307
        ]
      }
    },
    {
      "type": "Feature",
      "properties": {
        "norad_id": 34323,
        "name": "COSMOS 2251 DEB",
        "group": "cosmos-2251-debris",
        "lat": -73.55096551482089,
        "lon": 24.231288213849595,
        "alt_km": 657.4882794523955,
        "timestamp": "2025-12-10T16:57:12.032943+00:00",
        "meta_object_name": "COSMOS 2251 DEB",
        "meta_object_id": "1993-036NV",
        "meta_epoch": "2025-12-10T12:51:31.760064",
        "meta_mean_motion": 14.74303071,
        "meta_eccentricity": 0.0059576,
        "meta_inclination": 73.953,
        "meta_ra_of_asc_node": 127.4385,
        "meta_arg_of_pericenter": 172.02,
        "meta_mean_anomaly": 268.5619,
        "meta_ephemeris_type": 0,
        "meta_classification_type": "U",
        "meta_norad_cat_id": 34323,
        "meta_element_set_no": 999,
        "meta_rev_at_epoch": 88407,
        "meta_bstar": 0.0041903,
        "meta_mean_motion_dot": 0.00028627,
        "meta_mean_motion_ddot": 0,
        "tle_line1": "1 34323U 93036NV  25344.53578426  .00028627  00000+0  41903-2 0  9997",
        "tle_line2": "2 34323  73.9530 127.4385 0059576 172.0200 268.5619 14.74303071884072"
      },
      "geometry": {
        "type": "Point",
        "coordinates": [
          24.231288213849595,
          -73.55096551482089
        ]
      }
    },
    {
      "type": "Feature",
      "properties": {
        "norad_id": 34325,
        "name": "COSMOS 2251 DEB",
        "group": "cosmos-2251-debris",
        "lat": -73.44602612519114,
        "lon": 119.61996093030133,
        "alt_km": 812.7333496607635,
        "timestamp": "2025-12-10T16:57:12.032953+00:00",
        "meta_object_name": "COSMOS 2251 DEB",
        "meta_object_id": "1993-036NX",
        "meta_epoch": "2025-12-10T01:01:58.750176",
        "meta_mean_motion": 14.04446415,
        "meta_eccentricity": 0.01924998,
        "meta_inclination": 73.8718,
        "meta_ra_of_asc_node": 197.5587,
        "meta_arg_of_pericenter": 215.4231,
        "meta_mean_anomaly": 303.8295,
        "meta_ephemeris_type": 0,
        "meta_classification_type": "U",
        "meta_norad_cat_id": 34325,
        "meta_element_set_no": 999,
        "meta_rev_at_epoch": 85477,
        "meta_bstar": 0.0022379192,
        "meta_mean_motion_dot": 4.184e-05,
        "meta_mean_motion_ddot": 0,
        "tle_line1": "1 34325U 93036NX  25344.04304109  .00004184  00000+0  22379-2 0  9998",
        "tle_line2": "2 34325  73.8718 197.5587 0192499 215.4231 303.8295 14.04446415854771"
      },
      "geometry": {
        "type": "Point",
        "coordinates": [
          119.61996093030133,
          -73.44602612519114
        ]
      }
    },
    {
      "type": "Feature",
      "properties": {
        "norad_id": 34327,
        "name": "COSMOS 2251 DEB",
        "group": "cosmos-2251-debris",
        "lat": -7.622299771334051,
        "lon": -1.8409319313841797,
        "alt_km": 626.3504391952483,
        "timestamp": "2025-12-10T16:57:12.032963+00:00",
        "meta_object_name": "COSMOS 2251 DEB",
        "meta_object_id": "1993-036NZ",
        "meta_epoch": "2025-12-10T07:14:17.603232",
        "meta_mean_motion": 14.89088033,
        "meta_eccentricity": 0.0032653,
        "meta_inclination": 73.9935,
        "meta_ra_of_asc_node": 176.768,
        "meta_arg_of_pericenter": 353.6313,
        "meta_mean_anomaly": 185.1834,
        "meta_ephemeris_type": 0,
        "meta_classification_type": "U",
        "meta_norad_cat_id": 34327,
        "meta_element_set_no": 999,
        "meta_rev_at_epoch": 89471,
        "meta_bstar": 0.0016969,
        "meta_mean_motion_dot": 0.00016161,
        "meta_mean_motion_ddot": 0,
        "tle_line1": "1 34327U 93036NZ  25344.30159263  .00016161  00000+0  16969-2 0  9994",
        "tle_line2": "2 34327  73.9935 176.7680 0032653 353.6313 185.1834 14.89088033894718"
      },
      "geometry": {
        "type": "Point",
        "coordinates": [
          -1.8409319313841797,
          -7.622299771334051
        ]
      }
    }
  ]
}